RADARSAT-2              
1 32382U 07061A   26193.85706468 -.00000077  00000+0 -12835-4 0  9995
2 32382  98.5783 200.4226 0001338  84.1310 276.0025 14.29982486969625
